start=new Date('2022-08-10T00:00:00.000Z').valueOf();
sats=[{"SITE":"AFETR","RCS_SIZE":"LARGE","INCLINATION":"53.0539","REV_AT_EPOCH":"6670","MEAN_MOTION_DOT":"-0.00000933","TIME_SYSTEM":"UTC","SEMIMAJOR_AXIS":"6925.371","ARG_OF_PERICENTER":"73.4276","MEAN_MOTION":"15.06392768","MEAN_ELEMENT_THEORY":"SGP4","OBJECT_NAME":"STARLINK-2711","EPOCH":"2022-08-09T17:18:39.325536","NORAD_CAT_ID":"48673","TLE_LINE1":"1 48673U 21044AM  22221.72128849 -.00000933  00000-0 -43773-4 0  9994","TLE_LINE2":"2 48673  53.0539 223.3285 0001533  73.4276 286.6881 15.06392768 66706","ELEMENT_SET_NO":"999","LAUNCH_DATE":"2021-05-26","MEAN_MOTION_DDOT":"0.0000000000000","MEAN_ANOMALY":"286.6881","BSTAR":"-0.00004377300000","PERIAPSIS":"546.174","REF_FRAME":"TEME","APOAPSIS":"548.297","DECAY_DATE":null,"OBJECT_TYPE":"PAYLOAD","PERIOD":"95.593","GP_ID":"209928131","CLASSIFICATION_TYPE":"U","COUNTRY_CODE":"US","OBJECT_ID":"2021-044AM","EPHEMERIS_TYPE":"0","FILE":"3533123","RA_OF_ASC_NODE":"223.3285","ECCENTRICITY":"0.00015330","CENTER_NAME":"EARTH"},{"MEAN_MOTION_DDOT":"0.0000000000000","BSTAR":"0.00001744500000","MEAN_ANOMALY":"289.0350","PERIAPSIS":"546.155","APOAPSIS":"548.250","REF_FRAME":"TEME","DECAY_DATE":null,"OBJECT_TYPE":"PAYLOAD","PERIOD":"95.592","CLASSIFICATION_TYPE":"U","GP_ID":"209872203","COUNTRY_CODE":"US","OBJECT_ID":"2021-044AN","EPHEMERIS_TYPE":"0","FILE":"3532668","RA_OF_ASC_NODE":"224.5290","CENTER_NAME":"EARTH","ECCENTRICITY":"0.00015120","SITE":"AFETR","RCS_SIZE":"LARGE","INCLINATION":"53.0532","REV_AT_EPOCH":"6756","MEAN_MOTION_DOT":"-0.00000022","TIME_SYSTEM":"UTC","SEMIMAJOR_AXIS":"6925.337","ARG_OF_PERICENTER":"71.0802","OBJECT_NAME":"STARLINK-2712","MEAN_MOTION":"15.06403609","MEAN_ELEMENT_THEORY":"SGP4","NORAD_CAT_ID":"48674","TLE_LINE1":"1 48674U 21044AN  22221.45125917 -.00000022  00000-0  17445-4 0  9993","EPOCH":"2022-08-09T10:49:48.792288","ELEMENT_SET_NO":"999","LAUNCH_DATE":"2021-05-26","TLE_LINE2":"2 48674  53.0532 224.5290 0001512  71.0802 289.0350 15.06403609 67565"},{"GP_ID":"209929128","CLASSIFICATION_TYPE":"U","OBJECT_ID":"2021-044AP","COUNTRY_CODE":"US","EPHEMERIS_TYPE":"0","FILE":"3533123","RA_OF_ASC_NODE":"223.3622","CENTER_NAME":"EARTH","ECCENTRICITY":"0.00014100","MEAN_MOTION_DDOT":"0.0000000000000","BSTAR":"0.00002265600000","MEAN_ANOMALY":"289.3626","PERIAPSIS":"546.224","APOAPSIS":"548.177","REF_FRAME":"TEME","DECAY_DATE":null,"OBJECT_TYPE":"PAYLOAD","PERIOD":"95.592","SEMIMAJOR_AXIS":"6925.335","ARG_OF_PERICENTER":"70.7515","OBJECT_NAME":"STARLINK-2737","MEAN_MOTION":"15.06404294","MEAN_ELEMENT_THEORY":"SGP4","TLE_LINE1":"1 48675U 21044AP  22221.71390521  .00000056  00000-0  22656-4 0  9994","NORAD_CAT_ID":"48675","EPOCH":"2022-08-09T17:08:01.410144","ELEMENT_SET_NO":"999","LAUNCH_DATE":"2021-05-26","TLE_LINE2":"2 48675  53.0543 223.3622 0001410  70.7515 289.3626 15.06404294 66703","SITE":"AFETR","RCS_SIZE":"MEDIUM","INCLINATION":"53.0543","REV_AT_EPOCH":"6670","MEAN_MOTION_DOT":"0.00000056","TIME_SYSTEM":"UTC"},{"TIME_SYSTEM":"UTC","MEAN_MOTION_DOT":"-0.00000506","RCS_SIZE":"LARGE","SITE":"AFETR","REV_AT_EPOCH":"6670","INCLINATION":"53.0522","TLE_LINE1":"1 48676U 21044AQ  22221.71022298 -.00000506  00000-0 -15101-4 0  9997","NORAD_CAT_ID":"48676","EPOCH":"2022-08-09T17:02:43.265472","LAUNCH_DATE":"2021-05-26","ELEMENT_SET_NO":"999","TLE_LINE2":"2 48676  53.0522 223.3695 0001627  61.2943 298.8209 15.06394239 66700","SEMIMAJOR_AXIS":"6925.366","OBJECT_NAME":"STARLINK-2746","MEAN_ELEMENT_THEORY":"SGP4","MEAN_MOTION":"15.06394239","ARG_OF_PERICENTER":"61.2943","OBJECT_TYPE":"PAYLOAD","DECAY_DATE":null,"PERIOD":"95.593","BSTAR":"-0.00001510100000","MEAN_ANOMALY":"298.8209","MEAN_MOTION_DDOT":"0.0000000000000","APOAPSIS":"548.358","REF_FRAME":"TEME","PERIAPSIS":"546.104","RA_OF_ASC_NODE":"223.3695","CENTER_NAME":"EARTH","ECCENTRICITY":"0.00016270","COUNTRY_CODE":"US","EPHEMERIS_TYPE":"0","OBJECT_ID":"2021-044AQ","CLASSIFICATION_TYPE":"U","GP_ID":"209928382","FILE":"3533123"},{"TIME_SYSTEM":"UTC","MEAN_MOTION_DOT":"0.00000645","REV_AT_EPOCH":"6670","INCLINATION":"53.0539","RCS_SIZE":"LARGE","SITE":"AFETR","ELEMENT_SET_NO":"999","LAUNCH_DATE":"2021-05-26","TLE_LINE2":"2 48677  53.0539 223.3852 0001403  61.0743 299.0387 15.06394706 66701","TLE_LINE1":"1 48677U 21044AR  22221.70559007  .00000645  00000-0  62169-4 0  9998","NORAD_CAT_ID":"48677","EPOCH":"2022-08-09T16:56:02.982048","OBJECT_NAME":"STARLINK-2719","MEAN_MOTION":"15.06394706","MEAN_ELEMENT_THEORY":"SGP4","ARG_OF_PERICENTER":"61.0743","SEMIMAJOR_AXIS":"6925.365","PERIOD":"95.592","OBJECT_TYPE":"PAYLOAD","DECAY_DATE":null,"APOAPSIS":"548.201","REF_FRAME":"TEME","PERIAPSIS":"546.258","BSTAR":"0.00006216900000","MEAN_ANOMALY":"299.0387","MEAN_MOTION_DDOT":"0.0000000000000","CENTER_NAME":"EARTH","ECCENTRICITY":"0.00014030","RA_OF_ASC_NODE":"223.3852","FILE":"3533123","OBJECT_ID":"2021-044AR","COUNTRY_CODE":"US","EPHEMERIS_TYPE":"0","GP_ID":"209928632","CLASSIFICATION_TYPE":"U"},{"CLASSIFICATION_TYPE":"U","GP_ID":"209929384","COUNTRY_CODE":"US","EPHEMERIS_TYPE":"0","OBJECT_ID":"2021-044AS","FILE":"3533123","RA_OF_ASC_NODE":"223.4063","CENTER_NAME":"EARTH","ECCENTRICITY":"0.00015420","MEAN_MOTION_DDOT":"0.0000000000000","BSTAR":"0.00003361700000","MEAN_ANOMALY":"295.7294","PERIAPSIS":"546.137","APOAPSIS":"548.273","REF_FRAME":"TEME","DECAY_DATE":null,"OBJECT_TYPE":"PAYLOAD","PERIOD":"95.592","SEMIMAJOR_AXIS":"6925.340","ARG_OF_PERICENTER":"64.3854","OBJECT_NAME":"STARLINK-2615","MEAN_MOTION":"15.06402728","MEAN_ELEMENT_THEORY":"SGP4","NORAD_CAT_ID":"48678","TLE_LINE1":"1 48678U 21044AS  22221.70284860  .00000219  00000-0  33617-4 0  9994","EPOCH":"2022-08-09T16:52:06.119040","ELEMENT_SET_NO":"999","LAUNCH_DATE":"2021-05-26","TLE_LINE2":"2 48678  53.0537 223.4063 0001542  64.3854 295.7294 15.06402728 66702","SITE":"AFETR","RCS_SIZE":"LARGE","REV_AT_EPOCH":"6670","INCLINATION":"53.0537","MEAN_MOTION_DOT":"0.00000219","TIME_SYSTEM":"UTC"},{"COUNTRY_CODE":"US","EPHEMERIS_TYPE":"0","OBJECT_ID":"2021-044AT","CLASSIFICATION_TYPE":"U","GP_ID":"209929629","FILE":"3533123","RA_OF_ASC_NODE":"223.4308","ECCENTRICITY":"0.00015220","CENTER_NAME":"EARTH","MEAN_ANOMALY":"286.5818","BSTAR":"0.00001618900000","MEAN_MOTION_DDOT":"0.0000000000000","REF_FRAME":"TEME","APOAPSIS":"548.251","PERIAPSIS":"546.143","OBJECT_TYPE":"PAYLOAD","DECAY_DATE":null,"PERIOD":"95.592","SEMIMAJOR_AXIS":"6925.332","MEAN_MOTION":"15.06405396","MEAN_ELEMENT_THEORY":"SGP4","OBJECT_NAME":"STARLINK-2648","ARG_OF_PERICENTER":"73.5338","EPOCH":"2022-08-09T16:46:47.234784","NORAD_CAT_ID":"48679","TLE_LINE1":"1 48679U 21044AT  22221.69915781 -.00000040  00000-0  16189-4 0  9994","TLE_LINE2":"2 48679  53.0552 223.4308 0001522  73.5338 286.5818 15.06405396 66703","ELEMENT_SET_NO":"999","LAUNCH_DATE":"2021-05-26","RCS_SIZE":"LARGE","SITE":"AFETR","REV_AT_EPOCH":"6670","INCLINATION":"53.0552","TIME_SYSTEM":"UTC","MEAN_MOTION_DOT":"-0.00000040"},{"OBJECT_NAME":"STARLINK-2649","MEAN_MOTION":"15.06402308","MEAN_ELEMENT_THEORY":"SGP4","ARG_OF_PERICENTER":"68.4909","SEMIMAJOR_AXIS":"6925.341","ELEMENT_SET_NO":"999","LAUNCH_DATE":"2021-05-26","TLE_LINE2":"2 48680  53.0552 223.4492 0001873  68.4909 291.6280 15.06402308 66705","NORAD_CAT_ID":"48680","TLE_LINE1":"1 48680U 21044AU  22221.69547579 -.00000151  00000-0  87941-5 0  9990","EPOCH":"2022-08-09T16:41:29.108256","INCLINATION":"53.0552","REV_AT_EPOCH":"6670","RCS_SIZE":"LARGE","SITE":"AFETR","TIME_SYSTEM":"UTC","MEAN_MOTION_DOT":"-0.00000151","FILE":"3533123","COUNTRY_CODE":"US","EPHEMERIS_TYPE":"0","OBJECT_ID":"2021-044AU","GP_ID":"209927882","CLASSIFICATION_TYPE":"U","CENTER_NAME":"EARTH","ECCENTRICITY":"0.00018730","RA_OF_ASC_NODE":"223.4492","APOAPSIS":"548.504","REF_FRAME":"TEME","PERIAPSIS":"545.909","BSTAR":"0.00000879410000","MEAN_ANOMALY":"291.6280","MEAN_MOTION_DDOT":"0.0000000000000","PERIOD":"95.592","OBJECT_TYPE":"PAYLOAD","DECAY_DATE":null},{"SITE":"AFETR","RCS_SIZE":"LARGE","INCLINATION":"53.0547","REV_AT_EPOCH":"6714","MEAN_MOTION_DOT":"-0.00000610","TIME_SYSTEM":"UTC","SEMIMAJOR_AXIS":"6925.362","ARG_OF_PERICENTER":"76.7235","MEAN_MOTION":"15.06395724","MEAN_ELEMENT_THEORY":"SGP4","OBJECT_NAME":"STARLINK-2725","EPOCH":"2022-08-09T21:26:49.456608","NORAD_CAT_ID":"48681","TLE_LINE1":"1 48681U 21044AV  22221.89362797 -.00000610  00000-0 -22037-4 0  9995","TLE_LINE2":"2 48681  53.0547 192.7793 0001689  76.7235 283.3943 15.06395724 67147","LAUNCH_DATE":"2021-05-26","ELEMENT_SET_NO":"999","MEAN_MOTION_DDOT":"0.0000000000000","MEAN_ANOMALY":"283.3943","BSTAR":"-0.00002203700000","PERIAPSIS":"546.057","REF_FRAME":"TEME","APOAPSIS":"548.396","DECAY_DATE":null,"OBJECT_TYPE":"PAYLOAD","PERIOD":"95.592","GP_ID":"209928132","CLASSIFICATION_TYPE":"U","EPHEMERIS_TYPE":"0","COUNTRY_CODE":"US","OBJECT_ID":"2021-044AV","FILE":"3533123","RA_OF_ASC_NODE":"192.7793","ECCENTRICITY":"0.00016890","CENTER_NAME":"EARTH"},{"RA_OF_ASC_NODE":"182.6031","ECCENTRICITY":"0.00017710","CENTER_NAME":"EARTH","COUNTRY_CODE":"US","EPHEMERIS_TYPE":"0","OBJECT_ID":"2021-044AW","CLASSIFICATION_TYPE":"U","GP_ID":"209928884","FILE":"3533123","OBJECT_TYPE":"PAYLOAD","DECAY_DATE":null,"PERIOD":"95.590","MEAN_ANOMALY":"77.8345","BSTAR":"-0.01342700000000","MEAN_MOTION_DDOT":"0.0000000000000","REF_FRAME":"TEME","APOAPSIS":"548.326","PERIAPSIS":"545.873","EPOCH":"2022-08-09T22:00:00.999936","NORAD_CAT_ID":"48682","TLE_LINE1":"1 48682U 21044AW  22221.91667824 -.00195080  00000-0 -13427-1 0  9994","TLE_LINE2":"2 48682  53.0531 182.6031 0001771  62.4514  77.8345 15.06437364  1303","LAUNCH_DATE":"2021-05-26","ELEMENT_SET_NO":"999","SEMIMAJOR_AXIS":"6925.234","MEAN_MOTION":"15.06437364","MEAN_ELEMENT_THEORY":"SGP4","OBJECT_NAME":"STARLINK-2743","ARG_OF_PERICENTER":"62.4514","TIME_SYSTEM":"UTC","MEAN_MOTION_DOT":"-0.00195080","RCS_SIZE":"LARGE","SITE":"AFETR","INCLINATION":"53.0531","REV_AT_EPOCH":"130"}];
